STARLINK-31092          
1 58628U 23203L   26068.37045179 -.00000528  00000+0 -96672-5 0  9998
2 58628  42.9979  68.7960 0000529 234.8552 125.2250 15.27572454123513
HAWK-11A                
1 62382U 24247F   26068.51231358  .00009457  00000+0  34106-3 0  9991
2 62382  44.9941 114.3328 0005466 327.3713  32.6832 15.28849427 67741
